******** Week 377 almanac for PRN-01 ********
ID:                         01
Health:                     000
Eccentricity:               0.1795291901E-002
Time of Applicability(s):  61440.0000
Orbital Inclination(rad):   0.9570925583
Rate of Right Ascen(r/s):  -0.8148910863E-008
SQRT(A)  (m 1/2):           5153.554199
Right Ascen at Week(rad):   0.1006462547E+001
Argument of Perigee(rad):   0.205453058
Mean Anom(rad):            -0.1425710057E+001
Af0(s):                     0.2365112305E-003
Af1(s/s):                  -0.1091393642E-010
week:                        377

******** Week 377 almanac for PRN-02 ********
ID:                         02
Health:                     000
Eccentricity:               0.1687002182E-001
Time of Applicability(s):  61440.0000
Orbital Inclination(rad):   0.9621738697
Rate of Right Ascen(r/s):  -0.7988904198E-008
SQRT(A)  (m 1/2):           5153.689941
Right Ascen at Week(rad):   0.8444122319E+000
Argument of Perigee(rad):  -0.746882363
Mean Anom(rad):             0.1904518042E-001
Af0(s):                     0.1277923584E-003
Af1(s/s):                   0.7275957614E-011
week:                        377

******** Week 377 almanac for PRN-03 ********
ID:                         03
Health:                     000
Eccentricity:               0.6970882416E-002
Time of Applicability(s):  61440.0000
Orbital Inclination(rad):   0.9945911981
Rate of Right Ascen(r/s):  -0.7726036106E-008
SQRT(A)  (m 1/2):           5153.524414
Right Ascen at Week(rad):   0.1998332052E+001
Argument of Perigee(rad):   1.251455307
Mean Anom(rad):             0.2804043477E+001
Af0(s):                     0.3995895386E-003
Af1(s/s):                  -0.1818989404E-010
week:                        377

******** Week 377 almanac for PRN-04 ********
ID:                         04
Health:                     000
Eccentricity:               0.3792285919E-002
Time of Applicability(s):  61440.0000
Orbital Inclination(rad):   0.9723724451
Rate of Right Ascen(r/s):  -0.7440309919E-008
SQRT(A)  (m 1/2):           5153.646484
Right Ascen at Week(rad):   0.3066691997E+001
Argument of Perigee(rad):  -2.892006190
Mean Anom(rad):            -0.5215676991E+000
Af0(s):                     0.6103515625E-004
Af1(s/s):                   0.0000000000E+000
week:                        377

******** Week 377 almanac for PRN-05 ********
ID:                         05
Health:                     000
Eccentricity:               0.5630016327E-002
Time of Applicability(s):  61440.0000
Orbital Inclination(rad):   0.9809831107
Rate of Right Ascen(r/s):  -0.7886042771E-008
SQRT(A)  (m 1/2):           5153.718262
Right Ascen at Week(rad):   0.1937017762E+001
Argument of Perigee(rad):   1.465241895
Mean Anom(rad):             0.5122394781E-001
Af0(s):                    -0.2346038818E-003
Af1(s/s):                   0.0000000000E+000
week:                        377

******** Week 377 almanac for PRN-06 ********
ID:                         06
Health:                     000
Eccentricity:               0.3688812256E-002
Time of Applicability(s):  61440.0000
Orbital Inclination(rad):   0.9858786666
Rate of Right Ascen(r/s):  -0.7840326581E-008
SQRT(A)  (m 1/2):           5153.664551
Right Ascen at Week(rad):   0.9602813359E+000
Argument of Perigee(rad):  -0.535846903
Mean Anom(rad):            -0.2202514408E+001
Af0(s):                    -0.5836486816E-003
Af1(s/s):                   0.7275957614E-011
week:                        377

******** Week 377 almanac for PRN-07 ********
ID:                         07
Health:                     000
Eccentricity:               0.2091264725E-001
Time of Applicability(s):  61440.0000
Orbital Inclination(rad):   0.9509086983
Rate of Right Ascen(r/s):  -0.7851755629E-008
SQRT(A)  (m 1/2):           5153.531250
Right Ascen at Week(rad):  -0.2209220705E+001
Argument of Perigee(rad):  -1.959082967
Mean Anom(rad):            -0.3001784686E+001
Af0(s):                    -0.2002716064E-003
Af1(s/s):                  -0.3637978807E-011
week:                        377

******** Week 377 almanac for PRN-08 ********
ID:                         08
Health:                     000
Eccentricity:               0.1164436340E-001
Time of Applicability(s):  61440.0000
Orbital Inclination(rad):   0.9423699381
Rate of Right Ascen(r/s):  -0.7771752296E-008
SQRT(A)  (m 1/2):           5153.691895
Right Ascen at Week(rad):  -0.1644104580E+000
Argument of Perigee(rad):   0.543155408
Mean Anom(rad):            -0.2523263574E+000
Af0(s):                     0.4110336304E-003
Af1(s/s):                  -0.7275957614E-011
week:                        377

******** Week 377 almanac for PRN-09 ********
ID:                         09
Health:                     000
Eccentricity:               0.3573894501E-002
Time of Applicability(s):  61440.0000
Orbital Inclination(rad):   0.9666379935
Rate of Right Ascen(r/s):  -0.7508884204E-008
SQRT(A)  (m 1/2):           5153.670898
Right Ascen at Week(rad):   0.3001691059E+001
Argument of Perigee(rad):   2.036701421
Mean Anom(rad):             0.3611393744E+000
Af0(s):                     0.7295608521E-003
Af1(s/s):                  -0.7275957614E-011
week:                        377

******** Week 377 almanac for PRN-10 ********
ID:                         10
Health:                     000
Eccentricity:               0.1106405258E-001
Time of Applicability(s):  61440.0000
Orbital Inclination(rad):   0.9940998449
Rate of Right Ascen(r/s):  -0.7748894201E-008
SQRT(A)  (m 1/2):           5153.608887
Right Ascen at Week(rad):   0.1995827349E+001
Argument of Perigee(rad):  -2.263977378
Mean Anom(rad):             0.1824929306E+001
Af0(s):                    -0.5722045898E-003
Af1(s/s):                   0.3637978807E-011
week:                        377

******** Week 377 almanac for PRN-11 ********
ID:                         11
Health:                     000
Eccentricity:               0.2403259277E-002
Time of Applicability(s):  61440.0000
Orbital Inclination(rad):   0.9627670888
Rate of Right Ascen(r/s):  -0.8068907531E-008
SQRT(A)  (m 1/2):           5153.586914
Right Ascen at Week(rad):   0.9764720237E+000
Argument of Perigee(rad):  -2.360409941
Mean Anom(rad):            -0.9672138355E+000
Af0(s):                    -0.2918243408E-003
Af1(s/s):                   0.1091393642E-010
week:                        377

******** Week 377 almanac for PRN-12 ********
ID:                         12
Health:                     000
Eccentricity:               0.8718967438E-002
Time of Applicability(s):  61440.0000
Orbital Inclination(rad):   0.9584168152
Rate of Right Ascen(r/s):  -0.7748894201E-008
SQRT(A)  (m 1/2):           5153.654785
Right Ascen at Week(rad):  -0.1090288455E+001
Argument of Perigee(rad):   1.585322331
Mean Anom(rad):             0.2508536834E+001
Af0(s):                    -0.6065368652E-003
Af1(s/s):                   0.0000000000E+000
week:                        377

******** Week 377 almanac for PRN-13 ********
ID:                         13
Health:                     063
Eccentricity:               0.2281188965E-002
Time of Applicability(s):  61440.0000
Orbital Inclination(rad):   0.9588362631
Rate of Right Ascen(r/s):  -0.7783181344E-008
SQRT(A)  (m 1/2):           5153.544922
Right Ascen at Week(rad):  -0.1198832576E+001
Argument of Perigee(rad):   1.832524683
Mean Anom(rad):             0.2339536043E+001
Af0(s):                     0.3881454468E-003
Af1(s/s):                   0.1818989404E-010
week:                        377

******** Week 377 almanac for PRN-14 ********
ID:                         14
Health:                     000
Eccentricity:               0.7297039032E-002
Time of Applicability(s):  61440.0000
Orbital Inclination(rad):   0.9417048136
Rate of Right Ascen(r/s):  -0.7977475151E-008
SQRT(A)  (m 1/2):           5153.593750
Right Ascen at Week(rad):  -0.1146808681E+001
Argument of Perigee(rad):  -2.688177369
Mean Anom(rad):             0.2390564124E+001
Af0(s):                     0.7495880127E-003
Af1(s/s):                   0.0000000000E+000
week:                        377

******** Week 377 almanac for PRN-15 ********
ID:                         15
Health:                     000
Eccentricity:               0.1692819595E-001
Time of Applicability(s):  61440.0000
Orbital Inclination(rad):   0.9446709092
Rate of Right Ascen(r/s):  -0.7760323249E-008
SQRT(A)  (m 1/2):           5153.702637
Right Ascen at Week(rad):   0.2854891420E+001
Argument of Perigee(rad):   1.528665410
Mean Anom(rad):            -0.1264562304E+001
Af0(s):                     0.4243850708E-003
Af1(s/s):                   0.3637978807E-011
week:                        377

******** Week 377 almanac for PRN-16 ********
ID:                         16
Health:                     000
Eccentricity:               0.1500892639E-001
Time of Applicability(s):  61440.0000
Orbital Inclination(rad):   0.9575060141
Rate of Right Ascen(r/s):  -0.7748894201E-008
SQRT(A)  (m 1/2):           5153.644531
Right Ascen at Week(rad):  -0.1073500803E+001
Argument of Perigee(rad):   0.935877709
Mean Anom(rad):             0.8156587058E+000
Af0(s):                     0.2889633179E-003
Af1(s/s):                   0.7275957614E-011
week:                        377

